LUCH 5A                 
1 37951U 11074B   22229.63514769 -.00000059  00000+0  00000+0 0  9999
2 37951   5.1676  96.5386 0005116  26.8468 238.2035  1.00269273 39157
NIGCOMSAT 1R            
1 38014U 11077A   22230.22202139  .00000137  00000+0  00000+0 0  9991
2 38014   0.0219 112.2419 0001545 153.1122 183.6323  1.00275704 39004
FENGYUN 2F              
1 38049U 12002A   22227.18196601 -.00000374  00000+0  00000+0 0  9999
2 38049   3.9316  79.2510 0000495  98.6843 323.3163  1.00273528 38839
WGS F4 (USA 233)        
1 38070U 12003A   22230.20795764 -.00000223  00000+0  00000+0 0  9999
2 38070   0.0079 137.5932 0000359  81.6487 270.5645  1.00271864 38691
SES-4                   
1 38087U 12007A   22225.75764918 -.00000187  00000+0  00000+0 0  9991
2 38087   0.0129  23.0798 0002239 121.2500  68.5794  1.00271022 38168
BEIDOU 11               
1 38091U 12008A   22229.77826953  .00000047  00000+0  00000+0 0  9995
2 38091   1.6966  69.0818 0013314 344.6132 251.3222  1.00275046 38449
MUOS-1                  
1 38093U 12009A   22229.60389281 -.00000136  00000+0  00000+0 0  9998
2 38093   3.0012  33.6410 0053663   4.0768  45.6689  1.00272498 38413
INTELSAT 22 (IS-22)     
1 38098U 12011A   22230.04077094 -.00000067  00000+0  00000+0 0  9995
2 38098   0.0192  97.4580 0002853  63.2308 252.4660  1.00271998 38020
APSTAR 7                
1 38107U 12013A   22230.15399141 -.00000110  00000+0  00000+0 0  9999
2 38107   0.0212 124.3388 0002458  43.1897 290.8805  1.00272537 38141
YAHSAT 1B               
1 38245U 12016A   22228.79104794  .00000115  00000+0  00000+0 0  9994
2 38245   0.0229 105.1819 0001532  27.6776 164.6453  1.00271678 37874
AEHF-2 (USA 235)        
1 38254U 12019A   22230.20745807 -.00000169  00000+0  00000+0 0  9992
2 38254   3.4720  61.1925 0002658  84.1054 161.7280  1.00270247 37645
JCSAT-13                
1 38331U 12023A   22230.23517493 -.00000364  00000+0  00000+0 0  9991
2 38331   0.0117 121.4661 0001955  34.5772  19.1893  1.00271501 37545
VINASAT-2               
1 38332U 12023B   22229.64345490 -.00000338  00000+0  00000+0 0  9992
2 38332   0.0089  37.4367 0002010 109.2097 182.8231  1.00271305 37586
NIMIQ 6                 
1 38342U 12026A   22229.21082510 -.00000184  00000+0  00000+0 0  9999
2 38342   0.0427 274.2968 0002612 238.2195 157.8267  1.00271906 36386
CHINASAT 2A (ZX 2A)     
1 38352U 12028A   22229.30033781 -.00000303  00000+0  00000+0 0  9991
2 38352   0.0356 262.2408 0001836 107.4456 162.3496  1.00271516 37347
INTELSAT 19 (IS-19)     
1 38356U 12030A   22230.28067036 -.00000064  00000+0  00000+0 0  9991
2 38356   0.0111 128.7732 0003140  23.2288  81.6511  1.00271735 37483
ECHOSTAR 17             
1 38551U 12035A   22229.46476194 -.00000085  00000+0  00000+0 0  9993
2 38551   0.0125 115.9650 0002035  34.2888 235.7594  1.00271663 37025
METEOSAT-10 (MSG-3)     
1 38552U 12035B   22230.28404236  .00000052  00000+0  00000+0 0  9997
2 38552   1.6138  44.5812 0000386  60.7369 332.7273  1.00271758 37194
SES-5                   
1 38652U 12036A   22229.62948983  .00000024  00000+0  00000+0 0  9996
2 38652   0.0506 290.0840 0001988 215.7755  51.6959  1.00272370 37038
TIANLIAN 1-03           
1 38730U 12040A   22229.85580758  .00000116  00000+0  00000+0 0  9997
2 38730   2.1677  90.7006 0006644  13.3365 190.6580  1.00275985 36958
INTELSAT 20 (IS-20)     
1 38740U 12043A   22226.88732699 -.00000044  00000+0  00000+0 0  9995
2 38740   0.0126 140.8785 0001970  24.5854 185.7378  1.00283917 36684
HYLAS 2                 
1 38741U 12043B   22225.70882671  .00000135  00000+0  00000+0 0  9992
2 38741   0.0039 303.5198 0002585 206.9815  97.7999  1.00264253 36694
INTELSAT 21 (IS-21)     
1 38749U 12045A   22229.33475877 -.00000295  00000+0  00000+0 0  9999
2 38749   0.0081 288.7698 0002285 231.1498 228.2695  1.00270848 36491
ASTRA 2F                
1 38778U 12051A   22230.28779198  .00000142  00000+0  00000+0 0  9997
2 38778   0.0847 252.4739 0003560 300.4146 265.5009  1.00271831 36265
GSAT-10                 
1 38779U 12051B   22228.82688534 -.00000177  00000+0  00000+0 0  9997
2 38779   0.0117 149.2753 0001966  43.6988 152.9047  1.00272150 36078
INTELSAT 23 (IS-23)     
1 38867U 12057A   22229.35677434 -.00000295  00000+0  00000+0 0  9998
2 38867   0.0086 148.2869 0000874   7.8486 245.0115  1.00259516 35902
BEIDOU 16               
1 38953U 12059A   22230.10327313 -.00000185  00000+0  00000+0 0  9997
2 38953   2.1383  84.1407 0009402 304.1471  59.4209  1.00271267 36022
LUCH 5B                 
1 38977U 12061A   22229.84848275 -.00000146  00000+0  00000+0 0  9997
2 38977   7.4209  62.1493 0005972  73.3667 119.8550  1.00272265 36146
YAMAL 300K              
1 38978U 12061B   22230.02575264  .00000062  00000+0  00000+0 0  9991
2 38978   0.0110 134.2371 0000504  92.6070 291.7348  1.00270547 35843
STAR ONE C3             
1 38991U 12062A   22229.35269414 -.00000259  00000+0  00000+0 0  9997
2 38991   0.0206  96.9782 0002489  72.4487 208.2493  1.00273317 35725
EUTELSAT 21B            
1 38992U 12062B   22230.28648397  .00000122  00000+0  00000+0 0  9991
2 38992   0.0678  13.2375 0002568 135.3752 302.7247  1.00271986 35841
ECHOSTAR 16             
1 39008U 12065A   22229.29434318 -.00000292  00000+0  00000+0 0  9997
2 39008   0.0202 107.8271 0001957  40.5952 221.6807  1.00271054 35586
CHINASAT 12 (ZX 12)     
1 39017U 12067A   22228.56996846 -.00000218  00000+0  00000+0 0  9995
2 39017   0.0398 120.9959 0003445   7.6287 128.9440  1.00269508 35662
EUTELSAT 70B            
1 39020U 12069A   22229.57151959 -.00000053  00000+0  00000+0 0  9998
2 39020   0.0690 337.4060 0004045 203.1333  61.6201  1.00270624 35479
YAMAL 402               
1 39022U 12070A   22230.07790682  .00000077  00000+0  00000+0 0  9996
2 39022   0.0215 122.8821 0003666  17.4487 269.0303  1.00273205 35575
SKYNET 5D               
1 39034U 12075A   22229.60796743  .00000090  00000+0  00000+0 0  9990
2 39034   0.0731   6.0317 0003978 156.4299  75.0856  1.00270954 35122
MEXSAT 3                
1 39035U 12075B   22229.58525036 -.00000035  00000+0  00000+0 0  9993
2 39035   0.0121  84.2664 0002412  65.2281 272.3108  1.00272441 35146
TDRS 11                 
1 39070U 13004A   22229.54137498  .00000073  00000+0  00000+0 0  9993
2 39070   2.8778 347.7702 0006073  79.8799 278.8469  1.00277069 32650
AMAZONAS 3              
1 39078U 13006A   22230.21600391 -.00000290  00000+0  00000+0 0  9998
2 39078   0.0461 247.2332 0004731 291.9530 164.1240  1.00271800 34944
AZERSPACE 1             
1 39079U 13006B   22230.14788738  .00000125  00000+0  00000+0 0  9999
2 39079   0.0175 106.7652 0001253  73.2177 245.7136  1.00270298 34901
SBIRS GEO-2 (USA 241)   
1 39120U 13011A   22229.91588861 -.00000266  00000+0  00000+0 0  9997
2 39120   2.0073  24.7464 0002809 126.1080 107.1028  1.00270450 34558
EUTELSAT 117 WEST A     
1 39122U 13012A   22229.58367958 -.00000022  00000+0  00000+0 0  9995
2 39122   0.0481 280.9228 0002783 232.3149 266.0018  1.00272069 34408
ANIK G1                 
1 39127U 13014A   22229.59372785 -.00000083  00000+0  00000+0 0  9994
2 39127   0.0120 120.8806 0001374  68.9212 242.5633  1.00271832 34214
CHINASAT 11 (ZX 11)     
1 39157U 13020A   22229.87124204 -.00000298  00000+0  00000+0 0  9994
2 39157   0.0256 241.5459 0001563 222.2185 273.9726  1.00269059 34125
EUTELSAT 7B             
1 39163U 13022A   22228.82283094  .00000037  00000+0  00000+0 0  9990
2 39163   0.0672   2.0100 0001726  35.6073 230.7827  1.00273847 33919
WGS F5 (USA 243)        
1 39168U 13024A   22229.36302385 -.00000294  00000+0  00000+0 0  9998
2 39168   0.0163 105.0895 0000435 128.8740 169.9258  1.00271999 33137
SES-6                   
1 39172U 13026A   22229.41741204 -.00000271  00000+0  00000+0 0  9993
2 39172   0.0517 299.2857 0001963 216.9377 279.2796  1.00269982 33682
IRNSS-1A                
1 39199U 13034A   22225.68521743  .00000065  00000+0  00000+0 0  9990
2 39199  32.5507  84.5071 0019136 178.7694   0.4770  1.00272368 33296
MUOS-2                  
1 39206U 13036A   22229.23913235  .00000055  00000+0  00000+0 0  9996
2 39206   2.7426  25.0962 0055988 176.7760  32.8505  1.00275805 33159
ALPHASAT                
1 39215U 13038A   22227.98967962  .00000121  00000+0  00000+0 0  9998
2 39215   2.7279  13.1794 0003756 357.4466 334.9095  1.00266374 29968
INSAT-3D                
1 39216U 13038B   22230.10327313 -.00000165  00000+0  00000+0 0  9996
2 39216   0.0711 274.9632 0001469 281.9742 248.8181  1.00271923 33270
WGS F6 (USA 244)        
1 39222U 13041A   22229.38296896  .00000079  00000+0  00000+0 0  9999
2 39222   0.0195 108.3496 0000398 138.5800  81.4600  1.00271447 32012
ES'HAIL 1               
1 39233U 13044A   22229.71646675  .00000134  00000+0  00000+0 0  9997
2 39233   0.0525  33.0396 0002043 119.5428  96.9356  1.00275971 32866
GSAT-7                  
1 39234U 13044B   22230.15346823 -.00000085  00000+0  00000+0 0  9996
2 39234   0.0119 183.7340 0006640  65.8552 206.1523  1.00272797 32871
AMOS-4                  
1 39237U 13045A   22229.76785490 -.00000002  00000+0  00000+0 0  9991
2 39237   0.0181 114.0618 0000651  11.4669 181.9991  1.00272813 32856
AEHF-3 (USA 246)        
1 39256U 13050A   22229.24919015  .00000123  00000+0  00000+0 0  9996
2 39256   1.8356  72.3256 0051886 179.7082   8.3575  1.00278248 31630
ASTRA 2E                
1 39285U 13056A   22230.21616525  .00000142  00000+0  00000+0 0  9994
2 39285   0.0621  35.6259 0002074 103.6802 293.5177  1.00270408 32563
FM-6                    
1 39360U 13058A   22229.58367903 -.00000026  00000+0  00000+0 0  9993
2 39360   0.0509 268.7238 0000477 120.3032  30.8582  1.00270341 32023
RADUGA-1M 3             
1 39375U 13062A   22229.85868519  .00000146  00000+0  00000+0 0  9995
2 39375   2.3833  89.0803 0002321 151.3397  69.8829  1.00273488 32092
